LEMUR-1                 
1 40044U 14033AL  26176.98459277  .00001819  00000+0  21365-3 0  9994
2 40044  97.7884 326.5944 0049285  50.5058 310.0500 14.85276636646778
LEMUR-2-GREENBERG       
1 42837U 17042N   26177.23459279  .00018517  00000+0  60819-3 0  9990
2 42837  97.3819 357.8192 0007671 339.7319  20.3617 15.31592662489778
LEMUR-2-ANDIS           
1 42838U 17042P   26177.24296748  .00024063  00000+0  70478-3 0  9997
2 42838  97.3677 358.0432 0007454 337.3600  22.7313 15.35191789489843
LEMUR-2-MONSON          
1 42839U 17042Q   26176.47733067  .00018549  00000+0  67583-3 0  9997
2 42839  97.4081 357.0248 0005532 333.9572  26.1388 15.28227889489431
LEMUR-2-FURIAUS         
1 42840U 17042R   26177.23470032  .00019911  00000+0  67542-3 0  9993
2 42840  97.3769 355.7541 0007536  40.0938 320.0858 15.30534505489598
LEMUR-2-PETERG          
1 42841U 17042S   26177.23275916  .00026406  00000+0  79695-3 0  9997
2 42841  97.3990   2.2796 0002689 314.3019  45.8003 15.34249201489822
LEMUR-2-DEMBITZ         
1 42842U 17042T   26176.99286642  .00017838  00000+0  60557-3 0  9994
2 42842  97.3823 358.5446 0005974 356.9882   3.1321 15.30544210489696
LEMUR-2-ZACHARY         
1 42845U 17042W   26176.51494139  .00058848  00000+0  10110-2 0  9992
2 42845  97.3594   8.3323 0002375 353.4358   6.6862 15.50949573490491
LEMUR-2-AMANDA-SVANTE   
1 48269U 21034B   26177.16061618  .00037764  00000+0  11169-2 0  9997
2 48269  97.5761 255.6850 0003196 183.8920 176.2298 15.34813940282439
LEMUR-2-SPECIAL-K       
1 48273U 21034F   26177.22495079  .00194886  00000+0  17852-2 0  9995
2 48273  97.5653 264.7529 0004940 223.2587 136.8285 15.67151890283102
LEMUR-2-EMBRIONOVIS     
1 56970U 23084AQ  26176.92197766  .00015616  00000+0  42266-3 0  9994
2 56970  97.6292 321.4579 0007466 283.8692  76.1722 15.37756561169025
LEMUR-2-DEVERILL-M-T    
1 57391U 23100F   26177.00674130  .00029391  00000+0  73306-3 0  9990
2 57391  99.4473 218.3137 0005551  19.3455 340.7994 15.40166798162609
LEMUR-2-BASS            
1 58259U 23174D   26177.22324923  .00019897  00000+0  44662-3 0  9994
2 58259  97.3852 262.0628 0008067 134.6574 225.5333 15.43382671146758
LEMUR-2-JK0903EM1407    
1 58336U 23174CJ  26177.23545140  .00031015  00000+0  51334-3 0  9997
2 58336  97.3931 267.9618 0005156  93.4243 266.7600 15.52127486147134
LEMUR-2-MJR092620       
1 58340U 23174CN  26177.22605211  .00021759  00000+0  45935-3 0  9991
2 58340  97.3982 267.4227 0006870  91.3139 268.8897 15.45194313147047
LEMUR-2-NIMBUS2000      
1 58899U 24022A   26177.10978366  .00023839  00000+0  59080-3 0  9991
2 58899  97.4106  27.2244 0010284  89.1609 271.0815 15.40341309133648
LEMUR-2-VALHALLA        
1 58900U 24022B   26177.10808333  .00018284  00000+0  46003-3 0  9999
2 58900  97.4103  27.2083 0010775  85.0596 275.1880 15.39929857133649
LEMUR-2-CAEL            
1 58903U 24022E   26177.11032139  .00019264  00000+0  46421-3 0  9999
2 58903  97.4086  28.1623 0008962  71.2657 288.9561 15.41250491133712
LEMUR-2-JOHNNYTRUONG    
1 59146U 24043BA  26176.99773130  .00043301  00000+0  51323-3 0  9996
2 59146  97.5374 329.2505 0004865 149.9773 210.1764 15.61102759129416
LEMUR-2-TOMATOKECHUP    
1 60471U 24149D   26177.22715838  .00012335  00000+0  35165-3 0  9993
2 60471  97.3804 259.2973 0002225 158.0389 202.0951 15.36210776103554
LEMUR-2-STELLA          
1 60533U 24149BT  26177.01663578  .00012681  00000+0  74201-3 0  9990
2 60533  97.6742 259.5106 0001511  97.1382 263.0020 15.11984379101834
LEMUR-2-MARHISYAM       
1 60536U 24149BW  26177.19879850  .00011386  00000+0  67705-3 0  9996
2 60536  97.6882 260.1519 0003274 102.0033 258.1564 15.11425100101846
LEMUR-2-AHMED-ASRAR     
1 60576U 24149DN  26177.15808855  .00013587  00000+0  77465-3 0  9992
2 60576  97.7009 262.2384 0001062  24.4176 335.7104 15.12904051101922
LEMUR-2-LLOYD           
1 60577U 24149DP  26177.19127139  .00011477  00000+0  72131-3 0  9997
2 60577  97.6746 258.3252 0005087 117.9672 242.2072 15.09400718101754
LEMUR-2-SQUIRRELCOMM    
1 60578U 24149DQ  26177.15169649  .00006919  00000+0  46288-3 0  9995
2 60578  97.6719 258.0348 0005928  37.5029 322.6611 15.07249295101756
LEMUR-2-SIERRINI        
1 60579U 24149DR  26177.22417488  .00012576  00000+0  75316-3 0  9991
2 60579  97.6849 259.8566 0006445 139.0000 221.1715 15.11128218101826
LEMUR-2-WILSON          
1 62694U 25009CP  26177.19651796  .00001955  00000+0  18304-3 0  9998
2 62694  97.7026 255.5031 0003594  31.9738 328.1700 14.95201747 78706
LEMUR-2-STAR-FOX        
1 62696U 25009CR  26176.68352897  .00007196  00000+0  54462-3 0  9991
2 62696  97.6953 258.2312 0004347  94.2616 265.9106 15.02608478 78835
LEMUR-2-ARIANNA         
1 62699U 25009CU  26177.14812666  .00008578  00000+0  64828-3 0  9993
2 62699  97.6896 258.4598 0004751  97.6679 262.5086 15.02603268 78907
LEMUR-2-ALISIA          
1 62706U 25009DB  26177.19094524  .00009377  00000+0  70304-3 0  9996
2 62706  97.6934 259.2980 0002746 182.3566 177.7646 15.02886005101517
